{"type": "FeatureCollection", "features": [{"type": "Feature", "geometry": {"type": "LineString", "coordinates": [[117.3081309, 31.9054837], [117.3088216, 31.8921657]]}, "properties": {"line_name": "1", "distance_km": 1.478, "time_min": 2.53}}, {"type": "Feature", "geometry": {"type": "LineString", "coordinates": [[117.3088216, 31.8921657], [117.3099158, 31.8854948]]}, "properties": {"line_name": "1", "distance_km": 0.747, "time_min": 1.28}}, {"type": "Feature", "geometry": {"type": "LineString", "coordinates": [[117.3099158, 31.8854948], [117.3036522, 31.8774194]]}, "properties": {"line_name": "1", "distance_km": 1.074, "time_min": 1.84}}, {"type": "Feature", "geometry": {"type": "LineString", "coordinates": [[117.3036522, 31.8774194], [117.2993393, 31.8720703]]}, "properties": {"line_name": "1", "distance_km": 0.72, "time_min": 1.23}}, {"type": "Feature", "geometry": {"type": "LineString", "coordinates": [[117.2993393, 31.8720703], [117.2951417, 31.8660544]]}, "properties": {"line_name": "1", "distance_km": 0.776, "time_min": 1.33}}, {"type": "Feature", "geometry": {"type": "LineString", "coordinates": [[117.2951417, 31.8660544], [117.2957314, 31.8581516]]}, "properties": {"line_name": "1", "distance_km": 0.878, "time_min": 1.51}}, {"type": "Feature", "geometry": {"type": "LineString", "coordinates": [[117.2957314, 31.8581516], [117.2951295, 31.8492549]]}, "properties": {"line_name": "1", "distance_km": 0.988, "time_min": 1.69}}, {"type": "Feature", "geometry": {"type": "LineString", "coordinates": [[117.2951295, 31.8492549], [117.2962325, 31.8340831]]}, "properties": {"line_name": "1", "distance_km": 1.686, "time_min": 2.89}}, {"type": "Feature", "geometry": {"type": "LineString", "coordinates": [[117.2962325, 31.8340831], [117.2966121, 31.8253693]]}, "properties": {"line_name": "1", "distance_km": 0.967, "time_min": 1.66}}, {"type": "Feature", "geometry": {"type": "LineString", "coordinates": [[117.2966121, 31.8253693], [117.2980181, 31.8164627]]}, "properties": {"line_name": "1", "distance_km": 0.997, "time_min": 1.71}}, {"type": "Feature", "geometry": {"type": "LineString", "coordinates": [[117.2980181, 31.8164627], [117.2868197, 31.807565]]}, "properties": {"line_name": "1", "distance_km": 1.448, "time_min": 2.48}}, {"type": "Feature", "geometry": {"type": "LineString", "coordinates": [[117.2868197, 31.807565], [117.2845044, 31.8006489]]}, "properties": {"line_name": "1", "distance_km": 0.798, "time_min": 1.37}}, {"type": "Feature", "geometry": {"type": "LineString", "coordinates": [[117.2845044, 31.8006489], [117.2859288, 31.7945464]]}, "properties": {"line_name": "1", "distance_km": 0.69, "time_min": 1.18}}, {"type": "Feature", "geometry": {"type": "LineString", "coordinates": [[117.2859288, 31.7945464], [117.2859822, 31.7850889]]}, "properties": {"line_name": "1", "distance_km": 1.049, "time_min": 1.8}}, {"type": "Feature", "geometry": {"type": "LineString", "coordinates": [[117.2859822, 31.7850889], [117.2858281, 31.7749323]]}, "properties": {"line_name": "1", "distance_km": 1.126, "time_min": 1.93}}, {"type": "Feature", "geometry": {"type": "LineString", "coordinates": [[117.2858281, 31.7749323], [117.2970979, 31.7565706]]}, "properties": {"line_name": "1", "distance_km": 2.299, "time_min": 3.94}}, {"type": "Feature", "geometry": {"type": "LineString", "coordinates": [[117.2970979, 31.7565706], [117.2970775, 31.742794]]}, "properties": {"line_name": "1", "distance_km": 1.528, "time_min": 2.62}}, {"type": "Feature", "geometry": {"type": "LineString", "coordinates": [[117.2970775, 31.742794], [117.2970389, 31.7333321]]}, "properties": {"line_name": "1", "distance_km": 1.049, "time_min": 1.8}}, {"type": "Feature", "geometry": {"type": "LineString", "coordinates": [[117.2970389, 31.7333321], [117.2970684, 31.7248552]]}, "properties": {"line_name": "1", "distance_km": 0.94, "time_min": 1.61}}, {"type": "Feature", "geometry": {"type": "LineString", "coordinates": [[117.2970684, 31.7248552], [117.2965818, 31.7151064]]}, "properties": {"line_name": "1", "distance_km": 1.082, "time_min": 1.85}}, {"type": "Feature", "geometry": {"type": "LineString", "coordinates": [[117.2965818, 31.7151064], [117.2965097, 31.7077419]]}, "properties": {"line_name": "1", "distance_km": 0.817, "time_min": 1.4}}, {"type": "Feature", "geometry": {"type": "LineString", "coordinates": [[117.2965097, 31.7077419], [117.2964781, 31.7005586]]}, "properties": {"line_name": "1", "distance_km": 0.797, "time_min": 1.37}}, {"type": "Feature", "geometry": {"type": "LineString", "coordinates": [[117.2964781, 31.7005586], [117.2919403, 31.6933987]]}, "properties": {"line_name": "1", "distance_km": 0.903, "time_min": 1.55}}, {"type": "Feature", "geometry": {"type": "LineString", "coordinates": [[117.1213937, 31.852643], [117.1307523, 31.8529205]]}, "properties": {"line_name": "2", "distance_km": 0.886, "time_min": 1.52}}, {"type": "Feature", "geometry": {"type": "LineString", "coordinates": [[117.1307523, 31.8529205], [117.1461541, 31.8530571]]}, "properties": {"line_name": "2", "distance_km": 1.458, "time_min": 2.5}}, {"type": "Feature", "geometry": {"type": "LineString", "coordinates": [[117.1461541, 31.8530571], [117.1629102, 31.8533561]]}, "properties": {"line_name": "2", "distance_km": 1.586, "time_min": 2.72}}, {"type": "Feature", "geometry": {"type": "LineString", "coordinates": [[117.1629102, 31.8533561], [117.1804733, 31.8537341]]}, "properties": {"line_name": "2", "distance_km": 1.663, "time_min": 2.85}}, {"type": "Feature", "geometry": {"type": "LineString", "coordinates": [[117.1804733, 31.8537341], [117.1931741, 31.8559974]]}, "properties": {"line_name": "2", "distance_km": 1.228, "time_min": 2.11}}, {"type": "Feature", "geometry": {"type": "LineString", "coordinates": [[117.1931741, 31.8559974], [117.2037806, 31.8577084]]}, "properties": {"line_name": "2", "distance_km": 1.022, "time_min": 1.75}}, {"type": "Feature", "geometry": {"type": "LineString", "coordinates": [[117.2037806, 31.8577084], [117.2177843, 31.8566036]]}, "properties": {"line_name": "2", "distance_km": 1.331, "time_min": 2.28}}, {"type": "Feature", "geometry": {"type": "LineString", "coordinates": [[117.2177843, 31.8566036], [117.2252519, 31.8543048]]}, "properties": {"line_name": "2", "distance_km": 0.751, "time_min": 1.29}}, {"type": "Feature", "geometry": {"type": "LineString", "coordinates": [[117.2252519, 31.8543048], [117.2355609, 31.8528941]]}, "properties": {"line_name": "2", "distance_km": 0.988, "time_min": 1.69}}, {"type": "Feature", "geometry": {"type": "LineString", "coordinates": [[117.2355609, 31.8528941], [117.2505142, 31.8567302]]}, "properties": {"line_name": "2", "distance_km": 1.478, "time_min": 2.53}}, {"type": "Feature", "geometry": {"type": "LineString", "coordinates": [[117.2505142, 31.8567302], [117.259772, 31.8601447]]}, "properties": {"line_name": "2", "distance_km": 0.954, "time_min": 1.64}}, {"type": "Feature", "geometry": {"type": "LineString", "coordinates": [[117.259772, 31.8601447], [117.2698555, 31.8631416]]}, "properties": {"line_name": "2", "distance_km": 1.01, "time_min": 1.73}}, {"type": "Feature", "geometry": {"type": "LineString", "coordinates": [[117.2698555, 31.8631416], [117.2843578, 31.8636176]]}, "properties": {"line_name": "2", "distance_km": 1.373, "time_min": 2.35}}, {"type": "Feature", "geometry": {"type": "LineString", "coordinates": [[117.3083174, 31.869598], [117.3191702, 31.8697109]]}, "properties": {"line_name": "2", "distance_km": 1.027, "time_min": 1.76}}, {"type": "Feature", "geometry": {"type": "LineString", "coordinates": [[117.3191702, 31.8697109], [117.3310602, 31.8697412]]}, "properties": {"line_name": "2", "distance_km": 1.125, "time_min": 1.93}}, {"type": "Feature", "geometry": {"type": "LineString", "coordinates": [[117.3310602, 31.8697412], [117.3459362, 31.8699431]]}, "properties": {"line_name": "2", "distance_km": 1.408, "time_min": 2.41}}, {"type": "Feature", "geometry": {"type": "LineString", "coordinates": [[117.3459362, 31.8699431], [117.3614353, 31.8701786]]}, "properties": {"line_name": "2", "distance_km": 1.467, "time_min": 2.51}}, {"type": "Feature", "geometry": {"type": "LineString", "coordinates": [[117.3614353, 31.8701786], [117.3700883, 31.8702548]]}, "properties": {"line_name": "2", "distance_km": 0.819, "time_min": 1.4}}, {"type": "Feature", "geometry": {"type": "LineString", "coordinates": [[117.3700883, 31.8702548], [117.3838497, 31.8706037]]}, "properties": {"line_name": "2", "distance_km": 1.303, "time_min": 2.23}}, {"type": "Feature", "geometry": {"type": "LineString", "coordinates": [[117.3838497, 31.8706037], [117.3915518, 31.8708037]]}, "properties": {"line_name": "2", "distance_km": 0.729, "time_min": 1.25}}, {"type": "Feature", "geometry": {"type": "LineString", "coordinates": [[117.3915518, 31.8708037], [117.4141382, 31.8737413]]}, "properties": {"line_name": "2", "distance_km": 2.162, "time_min": 3.71}}, {"type": "Feature", "geometry": {"type": "LineString", "coordinates": [[117.4141382, 31.8737413], [117.4239403, 31.8758357]]}, "properties": {"line_name": "2", "distance_km": 0.956, "time_min": 1.64}}, {"type": "Feature", "geometry": {"type": "LineString", "coordinates": [[117.4239403, 31.8758357], [117.437008, 31.8757287]]}, "properties": {"line_name": "2", "distance_km": 1.237, "time_min": 2.12}}, {"type": "Feature", "geometry": {"type": "LineString", "coordinates": [[117.437008, 31.8757287], [117.44968, 31.8743724]]}, "properties": {"line_name": "2", "distance_km": 1.208, "time_min": 2.07}}, {"type": "Feature", "geometry": {"type": "LineString", "coordinates": [[117.44968, 31.8743724], [117.466213, 31.876999]]}, "properties": {"line_name": "2", "distance_km": 1.591, "time_min": 2.73}}, {"type": "Feature", "geometry": {"type": "LineString", "coordinates": [[117.466213, 31.876999], [117.4750561, 31.8729556]]}, "properties": {"line_name": "2", "distance_km": 0.949, "time_min": 1.63}}, {"type": "Feature", "geometry": {"type": "LineString", "coordinates": [[117.4750561, 31.8729556], [117.4802771, 31.861331]]}, "properties": {"line_name": "2", "distance_km": 1.38, "time_min": 2.37}}, {"type": "Feature", "geometry": {"type": "LineString", "coordinates": [[117.4802771, 31.861331], [117.4865488, 31.8538948]]}, "properties": {"line_name": "2", "distance_km": 1.016, "time_min": 1.74}}, {"type": "Feature", "geometry": {"type": "LineString", "coordinates": [[117.4865488, 31.8538948], [117.486508, 31.8466882]]}, "properties": {"line_name": "2", "distance_km": 0.799, "time_min": 1.37}}, {"type": "Feature", "geometry": {"type": "LineString", "coordinates": [[117.486508, 31.8466882], [117.4864444, 31.8357052]]}, "properties": {"line_name": "2", "distance_km": 1.218, "time_min": 2.09}}, {"type": "Feature", "geometry": {"type": "LineString", "coordinates": [[117.4864444, 31.8357052], [117.4863729, 31.8243962]]}, "properties": {"line_name": "2", "distance_km": 1.254, "time_min": 2.15}}, {"type": "Feature", "geometry": {"type": "LineString", "coordinates": [[117.1703723, 31.6891965], [117.1704125, 31.6964908]]}, "properties": {"line_name": "3", "distance_km": 0.809, "time_min": 1.39}}, {"type": "Feature", "geometry": {"type": "LineString", "coordinates": [[117.1704125, 31.6964908], [117.1609872, 31.7026479]]}, "properties": {"line_name": "3", "distance_km": 1.124, "time_min": 1.93}}, {"type": "Feature", "geometry": {"type": "LineString", "coordinates": [[117.1609872, 31.7026479], [117.1518724, 31.7112551]]}, "properties": {"line_name": "3", "distance_km": 1.287, "time_min": 2.21}}, {"type": "Feature", "geometry": {"type": "LineString", "coordinates": [[117.1518724, 31.7112551], [117.1508083, 31.7204206]]}, "properties": {"line_name": "3", "distance_km": 1.021, "time_min": 1.75}}, {"type": "Feature", "geometry": {"type": "LineString", "coordinates": [[117.1508083, 31.7204206], [117.1569321, 31.7257342]]}, "properties": {"line_name": "3", "distance_km": 0.827, "time_min": 1.42}}, {"type": "Feature", "geometry": {"type": "LineString", "coordinates": [[117.1569321, 31.7257342], [117.1632516, 31.7439532]]}, "properties": {"line_name": "3", "distance_km": 2.107, "time_min": 3.61}}, {"type": "Feature", "geometry": {"type": "LineString", "coordinates": [[117.1632516, 31.7439532], [117.1755648, 31.753137]]}, "properties": {"line_name": "3", "distance_km": 1.549, "time_min": 2.65}}, {"type": "Feature", "geometry": {"type": "LineString", "coordinates": [[117.1755648, 31.753137], [117.1867339, 31.7612045]]}, "properties": {"line_name": "3", "distance_km": 1.386, "time_min": 2.38}}, {"type": "Feature", "geometry": {"type": "LineString", "coordinates": [[117.1867339, 31.7612045], [117.1997125, 31.7673466]]}, "properties": {"line_name": "3", "distance_km": 1.406, "time_min": 2.41}}, {"type": "Feature", "geometry": {"type": "LineString", "coordinates": [[117.1997125, 31.7673466], [117.2043661, 31.7770103]]}, "properties": {"line_name": "3", "distance_km": 1.159, "time_min": 1.99}}, {"type": "Feature", "geometry": {"type": "LineString", "coordinates": [[117.2043661, 31.7770103], [117.2044479, 31.784234]]}, "properties": {"line_name": "3", "distance_km": 0.801, "time_min": 1.37}}, {"type": "Feature", "geometry": {"type": "LineString", "coordinates": [[117.2044479, 31.784234], [117.2044883, 31.7918015]]}, "properties": {"line_name": "3", "distance_km": 0.839, "time_min": 1.44}}, {"type": "Feature", "geometry": {"type": "LineString", "coordinates": [[117.2044883, 31.7918015], [117.2098997, 31.8029643]]}, "properties": {"line_name": "3", "distance_km": 1.34, "time_min": 2.3}}, {"type": "Feature", "geometry": {"type": "LineString", "coordinates": [[117.2098997, 31.8029643], [117.2100916, 31.8110707]]}, "properties": {"line_name": "3", "distance_km": 0.899, "time_min": 1.54}}, {"type": "Feature", "geometry": {"type": "LineString", "coordinates": [[117.2100916, 31.8110707], [117.218497, 31.8162325]]}, "properties": {"line_name": "3", "distance_km": 0.98, "time_min": 1.68}}, {"type": "Feature", "geometry": {"type": "LineString", "coordinates": [[117.218497, 31.8162325], [117.2264782, 31.8236791]]}, "properties": {"line_name": "3", "distance_km": 1.119, "time_min": 1.92}}, {"type": "Feature", "geometry": {"type": "LineString", "coordinates": [[117.2264782, 31.8236791], [117.2260598, 31.8341981]]}, "properties": {"line_name": "3", "distance_km": 1.167, "time_min": 2}}, {"type": "Feature", "geometry": {"type": "LineString", "coordinates": [[117.2260598, 31.8341981], [117.2258238, 31.8428998]]}, "properties": {"line_name": "3", "distance_km": 0.965, "time_min": 1.65}}, {"type": "Feature", "geometry": {"type": "LineString", "coordinates": [[117.2252158, 31.8637077], [117.2312234, 31.8729206]]}, "properties": {"line_name": "3", "distance_km": 1.169, "time_min": 2}}, {"type": "Feature", "geometry": {"type": "LineString", "coordinates": [[117.2312234, 31.8729206], [117.240655, 31.8830118]]}, "properties": {"line_name": "3", "distance_km": 1.431, "time_min": 2.45}}, {"type": "Feature", "geometry": {"type": "LineString", "coordinates": [[117.240655, 31.8830118], [117.2513916, 31.8885928]]}, "properties": {"line_name": "3", "distance_km": 1.189, "time_min": 2.04}}, {"type": "Feature", "geometry": {"type": "LineString", "coordinates": [[117.2513916, 31.8885928], [117.2627219, 31.8887526]]}, "properties": {"line_name": "3", "distance_km": 1.072, "time_min": 1.84}}, {"type": "Feature", "geometry": {"type": "LineString", "coordinates": [[117.2627219, 31.8887526], [117.2729017, 31.8889409]]}, "properties": {"line_name": "3", "distance_km": 0.963, "time_min": 1.65}}, {"type": "Feature", "geometry": {"type": "LineString", "coordinates": [[117.2729017, 31.8889409], [117.2817276, 31.889027]]}, "properties": {"line_name": "3", "distance_km": 0.835, "time_min": 1.43}}, {"type": "Feature", "geometry": {"type": "LineString", "coordinates": [[117.2817276, 31.889027], [117.290539, 31.8895149]]}, "properties": {"line_name": "3", "distance_km": 0.835, "time_min": 1.43}}, {"type": "Feature", "geometry": {"type": "LineString", "coordinates": [[117.290539, 31.8895149], [117.3025925, 31.8895998]]}, "properties": {"line_name": "3", "distance_km": 1.14, "time_min": 1.95}}, {"type": "Feature", "geometry": {"type": "LineString", "coordinates": [[117.3255456, 31.8871936], [117.3365536, 31.8869499]]}, "properties": {"line_name": "3", "distance_km": 1.042, "time_min": 1.79}}, {"type": "Feature", "geometry": {"type": "LineString", "coordinates": [[117.3365536, 31.8869499], [117.3467529, 31.8868682]]}, "properties": {"line_name": "3", "distance_km": 0.965, "time_min": 1.65}}, {"type": "Feature", "geometry": {"type": "LineString", "coordinates": [[117.3467529, 31.8868682], [117.3535544, 31.8921856]]}, "properties": {"line_name": "3", "distance_km": 0.873, "time_min": 1.5}}, {"type": "Feature", "geometry": {"type": "LineString", "coordinates": [[117.3535544, 31.8921856], [117.3555889, 31.8989237]]}, "properties": {"line_name": "3", "distance_km": 0.772, "time_min": 1.32}}, {"type": "Feature", "geometry": {"type": "LineString", "coordinates": [[117.3555889, 31.8989237], [117.3626773, 31.9117637]]}, "properties": {"line_name": "3", "distance_km": 1.574, "time_min": 2.7}}, {"type": "Feature", "geometry": {"type": "LineString", "coordinates": [[117.3626773, 31.9117637], [117.3668378, 31.923211]]}, "properties": {"line_name": "3", "distance_km": 1.329, "time_min": 2.28}}, {"type": "Feature", "geometry": {"type": "LineString", "coordinates": [[117.3668378, 31.923211], [117.3775561, 31.9269645]]}, "properties": {"line_name": "3", "distance_km": 1.096, "time_min": 1.88}}, {"type": "Feature", "geometry": {"type": "LineString", "coordinates": [[117.3775561, 31.9269645], [117.3915932, 31.926923]]}, "properties": {"line_name": "3", "distance_km": 1.327, "time_min": 2.28}}, {"type": "Feature", "geometry": {"type": "LineString", "coordinates": [[117.343179, 31.9389244], [117.3395351, 31.9284443]]}, "properties": {"line_name": "4", "distance_km": 1.212, "time_min": 2.08}}, {"type": "Feature", "geometry": {"type": "LineString", "coordinates": [[117.3395351, 31.9284443], [117.3417605, 31.9067455]]}, "properties": {"line_name": "4", "distance_km": 2.415, "time_min": 4.14}}, {"type": "Feature", "geometry": {"type": "LineString", "coordinates": [[117.3417605, 31.9067455], [117.3369989, 31.8986213]]}, "properties": {"line_name": "4", "distance_km": 1.007, "time_min": 1.73}}, {"type": "Feature", "geometry": {"type": "LineString", "coordinates": [[117.3299319, 31.8560718], [117.3183626, 31.8393181]]}, "properties": {"line_name": "4", "distance_km": 2.156, "time_min": 3.7}}, {"type": "Feature", "geometry": {"type": "LineString", "coordinates": [[117.3183626, 31.8393181], [117.3185833, 31.8270138]]}, "properties": {"line_name": "4", "distance_km": 1.365, "time_min": 2.34}}, {"type": "Feature", "geometry": {"type": "LineString", "coordinates": [[117.3185833, 31.8270138], [117.3201624, 31.8168972]]}, "properties": {"line_name": "4", "distance_km": 1.132, "time_min": 1.94}}, {"type": "Feature", "geometry": {"type": "LineString", "coordinates": [[117.3201624, 31.8168972], [117.307667, 31.8109034]]}, "properties": {"line_name": "4", "distance_km": 1.357, "time_min": 2.33}}, {"type": "Feature", "geometry": {"type": "LineString", "coordinates": [[117.307667, 31.8109034], [117.2966958, 31.8068775]]}, "properties": {"line_name": "4", "distance_km": 1.131, "time_min": 1.94}}, {"type": "Feature", "geometry": {"type": "LineString", "coordinates": [[117.2756003, 31.8017693], [117.2710613, 31.8052235]]}, "properties": {"line_name": "4", "distance_km": 0.576, "time_min": 0.99}}, {"type": "Feature", "geometry": {"type": "LineString", "coordinates": [[117.2710613, 31.8052235], [117.2634106, 31.8097935]]}, "properties": {"line_name": "4", "distance_km": 0.884, "time_min": 1.52}}, {"type": "Feature", "geometry": {"type": "LineString", "coordinates": [[117.2634106, 31.8097935], [117.2519764, 31.8105761]]}, "properties": {"line_name": "4", "distance_km": 1.086, "time_min": 1.86}}, {"type": "Feature", "geometry": {"type": "LineString", "coordinates": [[117.2519764, 31.8105761], [117.2437698, 31.8107263]]}, "properties": {"line_name": "4", "distance_km": 0.777, "time_min": 1.33}}, {"type": "Feature", "geometry": {"type": "LineString", "coordinates": [[117.2437698, 31.8107263], [117.2330646, 31.8111793]]}, "properties": {"line_name": "4", "distance_km": 1.015, "time_min": 1.74}}, {"type": "Feature", "geometry": {"type": "LineString", "coordinates": [[117.2330646, 31.8111793], [117.2221274, 31.8103269]]}, "properties": {"line_name": "4", "distance_km": 1.04, "time_min": 1.78}}, {"type": "Feature", "geometry": {"type": "LineString", "coordinates": [[117.1928741, 31.8136944], [117.182238, 31.8182335]]}, "properties": {"line_name": "4", "distance_km": 1.126, "time_min": 1.93}}, {"type": "Feature", "geometry": {"type": "LineString", "coordinates": [[117.182238, 31.8182335], [117.1702561, 31.8226935]]}, "properties": {"line_name": "4", "distance_km": 1.238, "time_min": 2.12}}, {"type": "Feature", "geometry": {"type": "LineString", "coordinates": [[117.1702561, 31.8226935], [117.152181, 31.8229536]]}, "properties": {"line_name": "4", "distance_km": 1.711, "time_min": 2.93}}, {"type": "Feature", "geometry": {"type": "LineString", "coordinates": [[117.152181, 31.8229536], [117.1286114, 31.8322001]]}, "properties": {"line_name": "4", "distance_km": 2.456, "time_min": 4.21}}, {"type": "Feature", "geometry": {"type": "LineString", "coordinates": [[117.1286114, 31.8322001], [117.1097126, 31.8320382]]}, "properties": {"line_name": "4", "distance_km": 1.789, "time_min": 3.07}}, {"type": "Feature", "geometry": {"type": "LineString", "coordinates": [[117.1097126, 31.8320382], [117.0948263, 31.8314793]]}, "properties": {"line_name": "4", "distance_km": 1.411, "time_min": 2.42}}, {"type": "Feature", "geometry": {"type": "LineString", "coordinates": [[117.2586773, 31.7114145], [117.2699715, 31.7150952]]}, "properties": {"line_name": "5", "distance_km": 1.146, "time_min": 1.96}}, {"type": "Feature", "geometry": {"type": "LineString", "coordinates": [[117.2699715, 31.7150952], [117.2806683, 31.7150784]]}, "properties": {"line_name": "5", "distance_km": 1.014, "time_min": 1.74}}, {"type": "Feature", "geometry": {"type": "LineString", "coordinates": [[117.3055118, 31.7150558], [117.3139415, 31.7150409]]}, "properties": {"line_name": "5", "distance_km": 0.799, "time_min": 1.37}}, {"type": "Feature", "geometry": {"type": "LineString", "coordinates": [[117.3139415, 31.7150409], [117.3245696, 31.7150193]]}, "properties": {"line_name": "5", "distance_km": 1.007, "time_min": 1.73}}, {"type": "Feature", "geometry": {"type": "LineString", "coordinates": [[117.3245696, 31.7150193], [117.3330854, 31.7201527]]}, "properties": {"line_name": "5", "distance_km": 0.988, "time_min": 1.69}}, {"type": "Feature", "geometry": {"type": "LineString", "coordinates": [[117.3330854, 31.7201527], [117.3331271, 31.733271]]}, "properties": {"line_name": "5", "distance_km": 1.455, "time_min": 2.49}}, {"type": "Feature", "geometry": {"type": "LineString", "coordinates": [[117.3331271, 31.733271], [117.3331731, 31.7427195]]}, "properties": {"line_name": "5", "distance_km": 1.048, "time_min": 1.8}}, {"type": "Feature", "geometry": {"type": "LineString", "coordinates": [[117.3331731, 31.7427195], [117.3332059, 31.7547643]]}, "properties": {"line_name": "5", "distance_km": 1.336, "time_min": 2.29}}, {"type": "Feature", "geometry": {"type": "LineString", "coordinates": [[117.3332059, 31.7547643], [117.3286762, 31.7677038]]}, "properties": {"line_name": "5", "distance_km": 1.498, "time_min": 2.57}}, {"type": "Feature", "geometry": {"type": "LineString", "coordinates": [[117.3286762, 31.7677038], [117.3286694, 31.7753045]]}, "properties": {"line_name": "5", "distance_km": 0.843, "time_min": 1.44}}, {"type": "Feature", "geometry": {"type": "LineString", "coordinates": [[117.3286694, 31.7753045], [117.3266826, 31.7875671]]}, "properties": {"line_name": "5", "distance_km": 1.373, "time_min": 2.35}}, {"type": "Feature", "geometry": {"type": "LineString", "coordinates": [[117.3266826, 31.7875671], [117.3191442, 31.7965881]]}, "properties": {"line_name": "5", "distance_km": 1.229, "time_min": 2.11}}, {"type": "Feature", "geometry": {"type": "LineString", "coordinates": [[117.3191442, 31.7965881], [117.3116924, 31.7957678]]}, "properties": {"line_name": "5", "distance_km": 0.712, "time_min": 1.22}}, {"type": "Feature", "geometry": {"type": "LineString", "coordinates": [[117.3116924, 31.7957678], [117.2964267, 31.7946549]]}, "properties": {"line_name": "5", "distance_km": 1.451, "time_min": 2.49}}, {"type": "Feature", "geometry": {"type": "LineString", "coordinates": [[117.2831483, 31.8111142], [117.271072, 31.8162227]]}, "properties": {"line_name": "5", "distance_km": 1.276, "time_min": 2.19}}, {"type": "Feature", "geometry": {"type": "LineString", "coordinates": [[117.271072, 31.8162227], [117.2635126, 31.8204657]]}, "properties": {"line_name": "5", "distance_km": 0.857, "time_min": 1.47}}, {"type": "Feature", "geometry": {"type": "LineString", "coordinates": [[117.2635126, 31.8204657], [117.2651871, 31.8305566]]}, "properties": {"line_name": "5", "distance_km": 1.13, "time_min": 1.94}}, {"type": "Feature", "geometry": {"type": "LineString", "coordinates": [[117.2651871, 31.8305566], [117.2675708, 31.8438368]]}, "properties": {"line_name": "5", "distance_km": 1.49, "time_min": 2.55}}, {"type": "Feature", "geometry": {"type": "LineString", "coordinates": [[117.2675708, 31.8438368], [117.2684506, 31.8513623]]}, "properties": {"line_name": "5", "distance_km": 0.839, "time_min": 1.44}}, {"type": "Feature", "geometry": {"type": "LineString", "coordinates": [[117.2730965, 31.8730526], [117.2729736, 31.8815392]]}, "properties": {"line_name": "5", "distance_km": 0.941, "time_min": 1.61}}, {"type": "Feature", "geometry": {"type": "LineString", "coordinates": [[117.2701028, 31.8995292], [117.2661822, 31.9189826]]}, "properties": {"line_name": "5", "distance_km": 2.189, "time_min": 3.75}}, {"type": "Feature", "geometry": {"type": "LineString", "coordinates": [[117.2661822, 31.9189826], [117.264601, 31.9319352]]}, "properties": {"line_name": "5", "distance_km": 1.444, "time_min": 2.48}}, {"type": "Feature", "geometry": {"type": "LineString", "coordinates": [[117.1793495, 31.833664], [117.1973578, 31.8346126]]}, "properties": {"line_name": "6", "distance_km": 1.708, "time_min": 2.93}}, {"type": "Feature", "geometry": {"type": "LineString", "coordinates": [[117.1973578, 31.8346126], [117.2166654, 31.8354049]]}, "properties": {"line_name": "6", "distance_km": 1.83, "time_min": 3.14}}, {"type": "Feature", "geometry": {"type": "LineString", "coordinates": [[117.2407078, 31.8326597], [117.252402, 31.8320021]]}, "properties": {"line_name": "6", "distance_km": 1.109, "time_min": 1.9}}, {"type": "Feature", "geometry": {"type": "LineString", "coordinates": [[117.3498647, 31.8376531], [117.3615622, 31.831959]]}, "properties": {"line_name": "6", "distance_km": 1.275, "time_min": 2.19}}, {"type": "Feature", "geometry": {"type": "LineString", "coordinates": [[117.3615622, 31.831959], [117.3724111, 31.8298697]]}, "properties": {"line_name": "6", "distance_km": 1.053, "time_min": 1.8}}, {"type": "Feature", "geometry": {"type": "LineString", "coordinates": [[117.3724111, 31.8298697], [117.3798832, 31.8376926]]}, "properties": {"line_name": "6", "distance_km": 1.119, "time_min": 1.92}}, {"type": "Feature", "geometry": {"type": "LineString", "coordinates": [[117.3798832, 31.8376926], [117.3928635, 31.839605]]}, "properties": {"line_name": "6", "distance_km": 1.247, "time_min": 2.14}}, {"type": "Feature", "geometry": {"type": "LineString", "coordinates": [[117.3928635, 31.839605], [117.4114374, 31.8383683]]}, "properties": {"line_name": "6", "distance_km": 1.764, "time_min": 3.02}}, {"type": "Feature", "geometry": {"type": "LineString", "coordinates": [[117.278573, 31.9054277], [117.2746189, 31.9252092]]}, "properties": {"line_name": "8", "distance_km": 2.225, "time_min": 3.81}}, {"type": "Feature", "geometry": {"type": "LineString", "coordinates": [[117.2543666, 31.9381077], [117.251566, 31.9585472]]}, "properties": {"line_name": "8", "distance_km": 2.282, "time_min": 3.91}}, {"type": "Feature", "geometry": {"type": "LineString", "coordinates": [[117.251566, 31.9585472], [117.2494365, 31.9778433]]}, "properties": {"line_name": "8", "distance_km": 2.149, "time_min": 3.68}}, {"type": "Feature", "geometry": {"type": "LineString", "coordinates": [[117.2494365, 31.9778433], [117.2485317, 31.9968033]]}, "properties": {"line_name": "8", "distance_km": 2.104, "time_min": 3.61}}, {"type": "Feature", "geometry": {"type": "LineString", "coordinates": [[117.2485317, 31.9968033], [117.2425355, 32.0130427]]}, "properties": {"line_name": "8", "distance_km": 1.888, "time_min": 3.24}}, {"type": "Feature", "geometry": {"type": "LineString", "coordinates": [[117.2425355, 32.0130427], [117.2431699, 32.0315526]]}, "properties": {"line_name": "8", "distance_km": 2.053, "time_min": 3.52}}, {"type": "Feature", "geometry": {"type": "LineString", "coordinates": [[117.2431699, 32.0315526], [117.2406631, 32.0465667]]}, "properties": {"line_name": "8", "distance_km": 1.682, "time_min": 2.88}}, {"type": "Feature", "geometry": {"type": "LineString", "coordinates": [[117.2406631, 32.0465667], [117.2508886, 32.0647891]]}, "properties": {"line_name": "8", "distance_km": 2.24, "time_min": 3.84}}, {"type": "Feature", "geometry": {"type": "LineString", "coordinates": [[117.284601, 31.8022331], [117.2756003, 31.8017693]]}, "properties": {"line_name": "4", "distance_km": 0.854, "time_min": 1.46}}, {"type": "Feature", "geometry": {"type": "LineString", "coordinates": [[117.2847447, 31.8006629], [117.2831483, 31.8111142]]}, "properties": {"line_name": "5", "distance_km": 1.169, "time_min": 2}}, {"type": "Feature", "geometry": {"type": "LineString", "coordinates": [[117.2966958, 31.8068775], [117.284601, 31.8022331]]}, "properties": {"line_name": "4", "distance_km": 1.256, "time_min": 2.15}}, {"type": "Feature", "geometry": {"type": "LineString", "coordinates": [[117.2964267, 31.7946549], [117.2847447, 31.8006629]]}, "properties": {"line_name": "5", "distance_km": 1.291, "time_min": 2.21}}, {"type": "Feature", "geometry": {"type": "LineString", "coordinates": [[117.296009, 31.8659755], [117.3083174, 31.869598]]}, "properties": {"line_name": "2", "distance_km": 1.232, "time_min": 2.11}}, {"type": "Feature", "geometry": {"type": "LineString", "coordinates": [[117.2843578, 31.8636176], [117.296009, 31.8659755]]}, "properties": {"line_name": "2", "distance_km": 1.133, "time_min": 1.94}}, {"type": "Feature", "geometry": {"type": "LineString", "coordinates": [[117.2798561, 31.8324552], [117.296255, 31.8340842]]}, "properties": {"line_name": "6", "distance_km": 1.563, "time_min": 2.68}}, {"type": "Feature", "geometry": {"type": "LineString", "coordinates": [[117.2965425, 31.7150637], [117.3055118, 31.7150558]]}, "properties": {"line_name": "5", "distance_km": 0.85, "time_min": 1.46}}, {"type": "Feature", "geometry": {"type": "LineString", "coordinates": [[117.2806683, 31.7150784], [117.2965425, 31.7150637]]}, "properties": {"line_name": "5", "distance_km": 1.505, "time_min": 2.58}}, {"type": "Feature", "geometry": {"type": "LineString", "coordinates": [[117.2254257, 31.8544486], [117.2252158, 31.8637077]]}, "properties": {"line_name": "3", "distance_km": 1.027, "time_min": 1.76}}, {"type": "Feature", "geometry": {"type": "LineString", "coordinates": [[117.2258238, 31.8428998], [117.2254257, 31.8544486]]}, "properties": {"line_name": "3", "distance_km": 1.281, "time_min": 2.2}}, {"type": "Feature", "geometry": {"type": "LineString", "coordinates": [[117.2703378, 31.8639495], [117.2730965, 31.8730526]]}, "properties": {"line_name": "5", "distance_km": 1.043, "time_min": 1.79}}, {"type": "Feature", "geometry": {"type": "LineString", "coordinates": [[117.2684506, 31.8513623], [117.2703378, 31.8639495]]}, "properties": {"line_name": "5", "distance_km": 1.407, "time_min": 2.41}}, {"type": "Feature", "geometry": {"type": "LineString", "coordinates": [[117.3327513, 31.8705529], [117.3299319, 31.8560718]]}, "properties": {"line_name": "4", "distance_km": 1.628, "time_min": 2.79}}, {"type": "Feature", "geometry": {"type": "LineString", "coordinates": [[117.3351304, 31.8779426], [117.3327513, 31.8705529]]}, "properties": {"line_name": "4", "distance_km": 0.85, "time_min": 1.46}}, {"type": "Feature", "geometry": {"type": "LineString", "coordinates": [[117.2101225, 31.8111634], [117.1928741, 31.8136944]]}, "properties": {"line_name": "4", "distance_km": 1.657, "time_min": 2.84}}, {"type": "Feature", "geometry": {"type": "LineString", "coordinates": [[117.2221274, 31.8103269], [117.2101225, 31.8111634]]}, "properties": {"line_name": "4", "distance_km": 1.14, "time_min": 1.96}}, {"type": "Feature", "geometry": {"type": "LineString", "coordinates": [[117.2259799, 31.8341965], [117.2407078, 31.8326597]]}, "properties": {"line_name": "6", "distance_km": 1.405, "time_min": 2.41}}, {"type": "Feature", "geometry": {"type": "LineString", "coordinates": [[117.2166654, 31.8354049], [117.2259799, 31.8341965]]}, "properties": {"line_name": "6", "distance_km": 0.892, "time_min": 1.53}}, {"type": "Feature", "geometry": {"type": "LineString", "coordinates": [[117.2728283, 31.8889132], [117.2701028, 31.8995292]]}, "properties": {"line_name": "5", "distance_km": 1.205, "time_min": 2.07}}, {"type": "Feature", "geometry": {"type": "LineString", "coordinates": [[117.2729736, 31.8815392], [117.2728283, 31.8889132]]}, "properties": {"line_name": "5", "distance_km": 0.818, "time_min": 1.4}}, {"type": "Feature", "geometry": {"type": "LineString", "coordinates": [[117.2815407, 31.8901165], [117.278573, 31.9054277]]}, "properties": {"line_name": "8", "distance_km": 1.721, "time_min": 2.95}}, {"type": "Feature", "geometry": {"type": "LineString", "coordinates": [[117.3364733, 31.8869726], [117.3351304, 31.8779426]]}, "properties": {"line_name": "4", "distance_km": 1.009, "time_min": 1.73}}, {"type": "Feature", "geometry": {"type": "LineString", "coordinates": [[117.3369989, 31.8986213], [117.3364733, 31.8869726]]}, "properties": {"line_name": "4", "distance_km": 1.293, "time_min": 2.22}}, {"type": "Feature", "geometry": {"type": "LineString", "coordinates": [[117.3186739, 31.8269104], [117.3498647, 31.8376531]]}, "properties": {"line_name": "6", "distance_km": 3.184, "time_min": 5.46}}, {"type": "Feature", "geometry": {"type": "LineString", "coordinates": [[117.296255, 31.8340842], [117.3186739, 31.8269104]]}, "properties": {"line_name": "6", "distance_km": 2.266, "time_min": 3.89}}, {"type": "Feature", "geometry": {"type": "LineString", "coordinates": [[117.1521807, 31.822738], [117.1793495, 31.833664]]}, "properties": {"line_name": "6", "distance_km": 2.843, "time_min": 4.87}}, {"type": "Feature", "geometry": {"type": "LineString", "coordinates": [[117.1286141, 31.8320923], [117.1521807, 31.822738]]}, "properties": {"line_name": "6", "distance_km": 2.46, "time_min": 4.22}}, {"type": "Feature", "geometry": {"type": "LineString", "coordinates": [[117.1097121, 31.8319305], [117.1286141, 31.8320923]]}, "properties": {"line_name": "6", "distance_km": 1.789, "time_min": 3.07}}, {"type": "Feature", "geometry": {"type": "LineString", "coordinates": [[117.0948259, 31.8313716], [117.1097121, 31.8319305]]}, "properties": {"line_name": "6", "distance_km": 1.411, "time_min": 2.42}}, {"type": "Feature", "geometry": {"type": "LineString", "coordinates": [[117.0827361, 31.8315948], [117.0948259, 31.8313716]]}, "properties": {"line_name": "6", "distance_km": 1.145, "time_min": 1.96}}, {"type": "Feature", "geometry": {"type": "LineString", "coordinates": [[117.2651945, 31.8306424], [117.2798561, 31.8324552]]}, "properties": {"line_name": "6", "distance_km": 1.402, "time_min": 2.4}}, {"type": "Feature", "geometry": {"type": "LineString", "coordinates": [[117.252402, 31.8320021], [117.2651945, 31.8306424]]}, "properties": {"line_name": "6", "distance_km": 1.22, "time_min": 2.09}}, {"type": "Feature", "geometry": {"type": "LineString", "coordinates": [[117.3097893, 31.8853006], [117.3255456, 31.8871936]]}, "properties": {"line_name": "3", "distance_km": 1.505, "time_min": 2.58}}, {"type": "Feature", "geometry": {"type": "LineString", "coordinates": [[117.3025925, 31.8895998], [117.3097893, 31.8853006]]}, "properties": {"line_name": "3", "distance_km": 0.831, "time_min": 1.42}}, {"type": "Feature", "geometry": {"type": "LineString", "coordinates": [[117.2658224, 31.9322335], [117.2543666, 31.9381077]]}, "properties": {"line_name": "8", "distance_km": 1.264, "time_min": 2.17}}, {"type": "Feature", "geometry": {"type": "LineString", "coordinates": [[117.2746189, 31.9252092], [117.2658224, 31.9322335]]}, "properties": {"line_name": "8", "distance_km": 1.14, "time_min": 1.95}}]}