{"type": "FeatureCollection", "features": [{"type": "Feature", "geometry": {"type": "Point", "coordinates": [117.3081309, 31.9054837]}, "properties": {"name": "兴华苑", "line_name": "1", "is_transfer": false}}, {"type": "Feature", "geometry": {"type": "Point", "coordinates": [117.3088216, 31.8921657]}, "properties": {"name": "瑶海公园", "line_name": "1", "is_transfer": false}}, {"type": "Feature", "geometry": {"type": "Point", "coordinates": [117.3036522, 31.8774194]}, "properties": {"name": "长淮", "line_name": "1", "is_transfer": false}}, {"type": "Feature", "geometry": {"type": "Point", "coordinates": [117.2993393, 31.8720703]}, "properties": {"name": "明光路", "line_name": "1", "is_transfer": false}}, {"type": "Feature", "geometry": {"type": "Point", "coordinates": [117.2957314, 31.8581516]}, "properties": {"name": "包公园", "line_name": "1", "is_transfer": false}}, {"type": "Feature", "geometry": {"type": "Point", "coordinates": [117.2951295, 31.8492549]}, "properties": {"name": "合工大南区", "line_name": "1", "is_transfer": false}}, {"type": "Feature", "geometry": {"type": "Point", "coordinates": [117.2966121, 31.8253693]}, "properties": {"name": "秋浦河路", "line_name": "1", "is_transfer": false}}, {"type": "Feature", "geometry": {"type": "Point", "coordinates": [117.2980181, 31.8164627]}, "properties": {"name": "葛大店", "line_name": "1", "is_transfer": false}}, {"type": "Feature", "geometry": {"type": "Point", "coordinates": [117.2868197, 31.807565]}, "properties": {"name": "望湖城", "line_name": "1", "is_transfer": false}}, {"type": "Feature", "geometry": {"type": "Point", "coordinates": [117.2859288, 31.7945464]}, "properties": {"name": "南站南广场", "line_name": "1", "is_transfer": false}}, {"type": "Feature", "geometry": {"type": "Point", "coordinates": [117.2859822, 31.7850889]}, "properties": {"name": "骆岗", "line_name": "1", "is_transfer": false}}, {"type": "Feature", "geometry": {"type": "Point", "coordinates": [117.2858281, 31.7749323]}, "properties": {"name": "高王", "line_name": "1", "is_transfer": false}}, {"type": "Feature", "geometry": {"type": "Point", "coordinates": [117.2970979, 31.7565706]}, "properties": {"name": "滨湖会展中心", "line_name": "1", "is_transfer": false}}, {"type": "Feature", "geometry": {"type": "Point", "coordinates": [117.2970775, 31.742794]}, "properties": {"name": "紫庐", "line_name": "1", "is_transfer": false}}, {"type": "Feature", "geometry": {"type": "Point", "coordinates": [117.2970389, 31.7333321]}, "properties": {"name": "塘西河公园", "line_name": "1", "is_transfer": false}}, {"type": "Feature", "geometry": {"type": "Point", "coordinates": [117.2970684, 31.7248552]}, "properties": {"name": "金斗公园", "line_name": "1", "is_transfer": false}}, {"type": "Feature", "geometry": {"type": "Point", "coordinates": [117.2965097, 31.7077419]}, "properties": {"name": "万达城", "line_name": "1", "is_transfer": false}}, {"type": "Feature", "geometry": {"type": "Point", "coordinates": [117.2964781, 31.7005586]}, "properties": {"name": "万年埠", "line_name": "1", "is_transfer": false}}, {"type": "Feature", "geometry": {"type": "Point", "coordinates": [117.2919403, 31.6933987]}, "properties": {"name": "丙子铺", "line_name": "1", "is_transfer": false}}, {"type": "Feature", "geometry": {"type": "Point", "coordinates": [117.1213937, 31.852643]}, "properties": {"name": "桂庄", "line_name": "2", "is_transfer": false}}, {"type": "Feature", "geometry": {"type": "Point", "coordinates": [117.1307523, 31.8529205]}, "properties": {"name": "汽车西站", "line_name": "2", "is_transfer": false}}, {"type": "Feature", "geometry": {"type": "Point", "coordinates": [117.1461541, 31.8530571]}, "properties": {"name": "振兴路", "line_name": "2", "is_transfer": false}}, {"type": "Feature", "geometry": {"type": "Point", "coordinates": [117.1629102, 31.8533561]}, "properties": {"name": "蜀山西", "line_name": "2", "is_transfer": false}}, {"type": "Feature", "geometry": {"type": "Point", "coordinates": [117.1804733, 31.8537341]}, "properties": {"name": "大蜀山", "line_name": "2", "is_transfer": false}}, {"type": "Feature", "geometry": {"type": "Point", "coordinates": [117.1931741, 31.8559974]}, "properties": {"name": "天柱路", "line_name": "2", "is_transfer": false}}, {"type": "Feature", "geometry": {"type": "Point", "coordinates": [117.2037806, 31.8577084]}, "properties": {"name": "科学大道", "line_name": "2", "is_transfer": false}}, {"type": "Feature", "geometry": {"type": "Point", "coordinates": [117.2177843, 31.8566036]}, "properties": {"name": "十里庙", "line_name": "2", "is_transfer": false}}, {"type": "Feature", "geometry": {"type": "Point", "coordinates": [117.2355609, 31.8528941]}, "properties": {"name": "五里墩", "line_name": "2", "is_transfer": false}}, {"type": "Feature", "geometry": {"type": "Point", "coordinates": [117.2505142, 31.8567302]}, "properties": {"name": "三里庵", "line_name": "2", "is_transfer": false}}, {"type": "Feature", "geometry": {"type": "Point", "coordinates": [117.259772, 31.8601447]}, "properties": {"name": "安农大", "line_name": "2", "is_transfer": false}}, {"type": "Feature", "geometry": {"type": "Point", "coordinates": [117.2843578, 31.8636176]}, "properties": {"name": "四牌楼", "line_name": "2", "is_transfer": false}}, {"type": "Feature", "geometry": {"type": "Point", "coordinates": [117.3083174, 31.869598]}, "properties": {"name": "三里街", "line_name": "2", "is_transfer": false}}, {"type": "Feature", "geometry": {"type": "Point", "coordinates": [117.3191702, 31.8697109]}, "properties": {"name": "东五里井", "line_name": "2", "is_transfer": false}}, {"type": "Feature", "geometry": {"type": "Point", "coordinates": [117.3459362, 31.8699431]}, "properties": {"name": "漕冲", "line_name": "2", "is_transfer": false}}, {"type": "Feature", "geometry": {"type": "Point", "coordinates": [117.3614353, 31.8701786]}, "properties": {"name": "东二十埠", "line_name": "2", "is_transfer": false}}, {"type": "Feature", "geometry": {"type": "Point", "coordinates": [117.3700883, 31.8702548]}, "properties": {"name": "龙岗", "line_name": "2", "is_transfer": false}}, {"type": "Feature", "geometry": {"type": "Point", "coordinates": [117.3838497, 31.8706037]}, "properties": {"name": "王岗", "line_name": "2", "is_transfer": false}}, {"type": "Feature", "geometry": {"type": "Point", "coordinates": [117.3915518, 31.8708037]}, "properties": {"name": "三十埠", "line_name": "2", "is_transfer": false}}, {"type": "Feature", "geometry": {"type": "Point", "coordinates": [117.4141382, 31.8737413]}, "properties": {"name": "三十埠东", "line_name": "2", "is_transfer": false}}, {"type": "Feature", "geometry": {"type": "Point", "coordinates": [117.4239403, 31.8758357]}, "properties": {"name": "祥和", "line_name": "2", "is_transfer": false}}, {"type": "Feature", "geometry": {"type": "Point", "coordinates": [117.437008, 31.8757287]}, "properties": {"name": "桂王", "line_name": "2", "is_transfer": false}}, {"type": "Feature", "geometry": {"type": "Point", "coordinates": [117.44968, 31.8743724]}, "properties": {"name": "对河", "line_name": "2", "is_transfer": false}}, {"type": "Feature", "geometry": {"type": "Point", "coordinates": [117.466213, 31.876999]}, "properties": {"name": "店埠河", "line_name": "2", "is_transfer": false}}, {"type": "Feature", "geometry": {"type": "Point", "coordinates": [117.4750561, 31.8729556]}, "properties": {"name": "排头", "line_name": "2", "is_transfer": false}}, {"type": "Feature", "geometry": {"type": "Point", "coordinates": [117.4802771, 31.861331]}, "properties": {"name": "肥东站", "line_name": "2", "is_transfer": false}}, {"type": "Feature", "geometry": {"type": "Point", "coordinates": [117.4865488, 31.8538948]}, "properties": {"name": "和睦湖", "line_name": "2", "is_transfer": false}}, {"type": "Feature", "geometry": {"type": "Point", "coordinates": [117.486508, 31.8466882]}, "properties": {"name": "马桥", "line_name": "2", "is_transfer": false}}, {"type": "Feature", "geometry": {"type": "Point", "coordinates": [117.4864444, 31.8357052]}, "properties": {"name": "南沙河", "line_name": "2", "is_transfer": false}}, {"type": "Feature", "geometry": {"type": "Point", "coordinates": [117.4863729, 31.8243962]}, "properties": {"name": "撮镇", "line_name": "2", "is_transfer": false}}, {"type": "Feature", "geometry": {"type": "Point", "coordinates": [117.1703723, 31.6891965]}, "properties": {"name": "省儿童医院新区", "line_name": "3", "is_transfer": false}}, {"type": "Feature", "geometry": {"type": "Point", "coordinates": [117.1704125, 31.6964908]}, "properties": {"name": "乐平", "line_name": "3", "is_transfer": false}}, {"type": "Feature", "geometry": {"type": "Point", "coordinates": [117.1609872, 31.7026479]}, "properties": {"name": "芮祠", "line_name": "3", "is_transfer": false}}, {"type": "Feature", "geometry": {"type": "Point", "coordinates": [117.1518724, 31.7112551]}, "properties": {"name": "四十埠", "line_name": "3", "is_transfer": false}}, {"type": "Feature", "geometry": {"type": "Point", "coordinates": [117.1508083, 31.7204206]}, "properties": {"name": "李湾", "line_name": "3", "is_transfer": false}}, {"type": "Feature", "geometry": {"type": "Point", "coordinates": [117.1569321, 31.7257342]}, "properties": {"name": "凉亭", "line_name": "3", "is_transfer": false}}, {"type": "Feature", "geometry": {"type": "Point", "coordinates": [117.1632516, 31.7439532]}, "properties": {"name": "安医一附院南区", "line_name": "3", "is_transfer": false}}, {"type": "Feature", "geometry": {"type": "Point", "coordinates": [117.1755648, 31.753137]}, "properties": {"name": "幸福坝", "line_name": "3", "is_transfer": false}}, {"type": "Feature", "geometry": {"type": "Point", "coordinates": [117.1867339, 31.7612045]}, "properties": {"name": "安大磬苑校区", "line_name": "3", "is_transfer": false}}, {"type": "Feature", "geometry": {"type": "Point", "coordinates": [117.1997125, 31.7673466]}, "properties": {"name": "工大翡翠湖校区", "line_name": "3", "is_transfer": false}}, {"type": "Feature", "geometry": {"type": "Point", "coordinates": [117.2043661, 31.7770103]}, "properties": {"name": "大学城北", "line_name": "3", "is_transfer": false}}, {"type": "Feature", "geometry": {"type": "Point", "coordinates": [117.2044479, 31.784234]}, "properties": {"name": "繁华大道", "line_name": "3", "is_transfer": false}}, {"type": "Feature", "geometry": {"type": "Point", "coordinates": [117.2044883, 31.7918015]}, "properties": {"name": "安医大二附院", "line_name": "3", "is_transfer": false}}, {"type": "Feature", "geometry": {"type": "Point", "coordinates": [117.2098997, 31.8029643]}, "properties": {"name": "省博物馆", "line_name": "3", "is_transfer": false}}, {"type": "Feature", "geometry": {"type": "Point", "coordinates": [117.218497, 31.8162325]}, "properties": {"name": "合肥大剧院", "line_name": "3", "is_transfer": false}}, {"type": "Feature", "geometry": {"type": "Point", "coordinates": [117.2264782, 31.8236791]}, "properties": {"name": "市政务中心", "line_name": "3", "is_transfer": false}}, {"type": "Feature", "geometry": {"type": "Point", "coordinates": [117.2258238, 31.8428998]}, "properties": {"name": "国防科技大学", "line_name": "3", "is_transfer": false}}, {"type": "Feature", "geometry": {"type": "Point", "coordinates": [117.2252158, 31.8637077]}, "properties": {"name": "南新庄", "line_name": "3", "is_transfer": false}}, {"type": "Feature", "geometry": {"type": "Point", "coordinates": [117.2312234, 31.8729206]}, "properties": {"name": "合肥西站", "line_name": "3", "is_transfer": false}}, {"type": "Feature", "geometry": {"type": "Point", "coordinates": [117.240655, 31.8830118]}, "properties": {"name": "杏花村", "line_name": "3", "is_transfer": false}}, {"type": "Feature", "geometry": {"type": "Point", "coordinates": [117.2513916, 31.8885928]}, "properties": {"name": "四泉桥", "line_name": "3", "is_transfer": false}}, {"type": "Feature", "geometry": {"type": "Point", "coordinates": [117.2627219, 31.8887526]}, "properties": {"name": "郑河", "line_name": "3", "is_transfer": false}}, {"type": "Feature", "geometry": {"type": "Point", "coordinates": [117.290539, 31.8895149]}, "properties": {"name": "淮南路", "line_name": "3", "is_transfer": false}}, {"type": "Feature", "geometry": {"type": "Point", "coordinates": [117.3025925, 31.8895998]}, "properties": {"name": "鸭林冲", "line_name": "3", "is_transfer": false}}, {"type": "Feature", "geometry": {"type": "Point", "coordinates": [117.3255456, 31.8871936]}, "properties": {"name": "竹丝滩", "line_name": "3", "is_transfer": false}}, {"type": "Feature", "geometry": {"type": "Point", "coordinates": [117.3467529, 31.8868682]}, "properties": {"name": "窦桥湾", "line_name": "3", "is_transfer": false}}, {"type": "Feature", "geometry": {"type": "Point", "coordinates": [117.3535544, 31.8921856]}, "properties": {"name": "新海大道", "line_name": "3", "is_transfer": false}}, {"type": "Feature", "geometry": {"type": "Point", "coordinates": [117.3555889, 31.8989237]}, "properties": {"name": "勤劳村", "line_name": "3", "is_transfer": false}}, {"type": "Feature", "geometry": {"type": "Point", "coordinates": [117.3626773, 31.9117637]}, "properties": {"name": "文浍苑", "line_name": "3", "is_transfer": false}}, {"type": "Feature", "geometry": {"type": "Point", "coordinates": [117.3668378, 31.923211]}, "properties": {"name": "幼儿师范", "line_name": "3", "is_transfer": false}}, {"type": "Feature", "geometry": {"type": "Point", "coordinates": [117.3775561, 31.9269645]}, "properties": {"name": "职教城", "line_name": "3", "is_transfer": false}}, {"type": "Feature", "geometry": {"type": "Point", "coordinates": [117.3915932, 31.926923]}, "properties": {"name": "职教城东", "line_name": "3", "is_transfer": false}}, {"type": "Feature", "geometry": {"type": "Point", "coordinates": [117.343179, 31.9389244]}, "properties": {"name": "安医一附院北区", "line_name": "4", "is_transfer": false}}, {"type": "Feature", "geometry": {"type": "Point", "coordinates": [117.3395351, 31.9284443]}, "properties": {"name": "陶冲湖东", "line_name": "4", "is_transfer": false}}, {"type": "Feature", "geometry": {"type": "Point", "coordinates": [117.3417605, 31.9067455]}, "properties": {"name": "十里村", "line_name": "4", "is_transfer": false}}, {"type": "Feature", "geometry": {"type": "Point", "coordinates": [117.3369989, 31.8986213]}, "properties": {"name": "新海公园", "line_name": "4", "is_transfer": false}}, {"type": "Feature", "geometry": {"type": "Point", "coordinates": [117.3351304, 31.8779426]}, "properties": {"name": "站塘", "line_name": "4", "is_transfer": false}}, {"type": "Feature", "geometry": {"type": "Point", "coordinates": [117.3299319, 31.8560718]}, "properties": {"name": "唐桥", "line_name": "4", "is_transfer": false}}, {"type": "Feature", "geometry": {"type": "Point", "coordinates": [117.3183626, 31.8393181]}, "properties": {"name": "五里庙", "line_name": "4", "is_transfer": false}}, {"type": "Feature", "geometry": {"type": "Point", "coordinates": [117.3201624, 31.8168972]}, "properties": {"name": "工经学院", "line_name": "4", "is_transfer": false}}, {"type": "Feature", "geometry": {"type": "Point", "coordinates": [117.307667, 31.8109034]}, "properties": {"name": "葛大店南", "line_name": "4", "is_transfer": false}}, {"type": "Feature", "geometry": {"type": "Point", "coordinates": [117.2966958, 31.8068775]}, "properties": {"name": "望湖城南", "line_name": "4", "is_transfer": false}}, {"type": "Feature", "geometry": {"type": "Point", "coordinates": [117.2756003, 31.8017693]}, "properties": {"name": "淝南", "line_name": "4", "is_transfer": false}}, {"type": "Feature", "geometry": {"type": "Point", "coordinates": [117.2710613, 31.8052235]}, "properties": {"name": "竹西", "line_name": "4", "is_transfer": false}}, {"type": "Feature", "geometry": {"type": "Point", "coordinates": [117.2634106, 31.8097935]}, "properties": {"name": "薛河", "line_name": "4", "is_transfer": false}}, {"type": "Feature", "geometry": {"type": "Point", "coordinates": [117.2519764, 31.8105761]}, "properties": {"name": "南屏路", "line_name": "4", "is_transfer": false}}, {"type": "Feature", "geometry": {"type": "Point", "coordinates": [117.2437698, 31.8107263]}, "properties": {"name": "姚公庙", "line_name": "4", "is_transfer": false}}, {"type": "Feature", "geometry": {"type": "Point", "coordinates": [117.2330646, 31.8111793]}, "properties": {"name": "天鹅湖东", "line_name": "4", "is_transfer": false}}, {"type": "Feature", "geometry": {"type": "Point", "coordinates": [117.2221274, 31.8103269]}, "properties": {"name": "天鹅湖", "line_name": "4", "is_transfer": false}}, {"type": "Feature", "geometry": {"type": "Point", "coordinates": [117.1928741, 31.8136944]}, "properties": {"name": "柳树塘", "line_name": "4", "is_transfer": false}}, {"type": "Feature", "geometry": {"type": "Point", "coordinates": [117.182238, 31.8182335]}, "properties": {"name": "金桂", "line_name": "4", "is_transfer": false}}, {"type": "Feature", "geometry": {"type": "Point", "coordinates": [117.1702561, 31.8226935]}, "properties": {"name": "玉兰大道", "line_name": "4", "is_transfer": false}}, {"type": "Feature", "geometry": {"type": "Point", "coordinates": [117.2586773, 31.7114145]}, "properties": {"name": "滨湖竹园", "line_name": "5", "is_transfer": false}}, {"type": "Feature", "geometry": {"type": "Point", "coordinates": [117.2699715, 31.7150952]}, "properties": {"name": "云川公园", "line_name": "5", "is_transfer": false}}, {"type": "Feature", "geometry": {"type": "Point", "coordinates": [117.2806683, 31.7150784]}, "properties": {"name": "清水冲", "line_name": "5", "is_transfer": false}}, {"type": "Feature", "geometry": {"type": "Point", "coordinates": [117.3055118, 31.7150558]}, "properties": {"name": "华山路", "line_name": "5", "is_transfer": false}}, {"type": "Feature", "geometry": {"type": "Point", "coordinates": [117.3139415, 31.7150409]}, "properties": {"name": "沈湾", "line_name": "5", "is_transfer": false}}, {"type": "Feature", "geometry": {"type": "Point", "coordinates": [117.3245696, 31.7150193]}, "properties": {"name": "渡江纪念馆", "line_name": "5", "is_transfer": false}}, {"type": "Feature", "geometry": {"type": "Point", "coordinates": [117.3330854, 31.7201527]}, "properties": {"name": "方兴湖", "line_name": "5", "is_transfer": false}}, {"type": "Feature", "geometry": {"type": "Point", "coordinates": [117.3331271, 31.733271]}, "properties": {"name": "省政务中心东", "line_name": "5", "is_transfer": false}}, {"type": "Feature", "geometry": {"type": "Point", "coordinates": [117.3331731, 31.7427195]}, "properties": {"name": "义城", "line_name": "5", "is_transfer": false}}, {"type": "Feature", "geometry": {"type": "Point", "coordinates": [117.3332059, 31.7547643]}, "properties": {"name": "扬子江路", "line_name": "5", "is_transfer": false}}, {"type": "Feature", "geometry": {"type": "Point", "coordinates": [117.3286762, 31.7677038]}, "properties": {"name": "黄河路", "line_name": "5", "is_transfer": false}}, {"type": "Feature", "geometry": {"type": "Point", "coordinates": [117.3286694, 31.7753045]}, "properties": {"name": "花园大道", "line_name": "5", "is_transfer": false}}, {"type": "Feature", "geometry": {"type": "Point", "coordinates": [117.3266826, 31.7875671]}, "properties": {"name": "大连路", "line_name": "5", "is_transfer": false}}, {"type": "Feature", "geometry": {"type": "Point", "coordinates": [117.3191442, 31.7965881]}, "properties": {"name": "义兴", "line_name": "5", "is_transfer": false}}, {"type": "Feature", "geometry": {"type": "Point", "coordinates": [117.3116924, 31.7957678]}, "properties": {"name": "包河苑", "line_name": "5", "is_transfer": false}}, {"type": "Feature", "geometry": {"type": "Point", "coordinates": [117.2964267, 31.7946549]}, "properties": {"name": "盛大", "line_name": "5", "is_transfer": false}}, {"type": "Feature", "geometry": {"type": "Point", "coordinates": [117.2831483, 31.8111142]}, "properties": {"name": "望湖城西", "line_name": "5", "is_transfer": false}}, {"type": "Feature", "geometry": {"type": "Point", "coordinates": [117.271072, 31.8162227]}, "properties": {"name": "凌大塘", "line_name": "5", "is_transfer": false}}, {"type": "Feature", "geometry": {"type": "Point", "coordinates": [117.2635126, 31.8204657]}, "properties": {"name": "休宁路", "line_name": "5", "is_transfer": false}}, {"type": "Feature", "geometry": {"type": "Point", "coordinates": [117.2675708, 31.8438368]}, "properties": {"name": "中国科大东区", "line_name": "5", "is_transfer": false}}, {"type": "Feature", "geometry": {"type": "Point", "coordinates": [117.2684506, 31.8513623]}, "properties": {"name": "稻香楼", "line_name": "5", "is_transfer": false}}, {"type": "Feature", "geometry": {"type": "Point", "coordinates": [117.2730965, 31.8730526]}, "properties": {"name": "杏花公园", "line_name": "5", "is_transfer": false}}, {"type": "Feature", "geometry": {"type": "Point", "coordinates": [117.2729736, 31.8815392]}, "properties": {"name": "白水坝", "line_name": "5", "is_transfer": false}}, {"type": "Feature", "geometry": {"type": "Point", "coordinates": [117.2701028, 31.8995292]}, "properties": {"name": "北五里井", "line_name": "5", "is_transfer": false}}, {"type": "Feature", "geometry": {"type": "Point", "coordinates": [117.2661822, 31.9189826]}, "properties": {"name": "菱湖公园", "line_name": "5", "is_transfer": false}}, {"type": "Feature", "geometry": {"type": "Point", "coordinates": [117.0827361, 31.8315948]}, "properties": {"name": "青龙岗", "line_name": "6", "is_transfer": false}}, {"type": "Feature", "geometry": {"type": "Point", "coordinates": [117.1793495, 31.833664]}, "properties": {"name": "开福寺", "line_name": "6", "is_transfer": false}}, {"type": "Feature", "geometry": {"type": "Point", "coordinates": [117.1973578, 31.8346126]}, "properties": {"name": "梦城", "line_name": "6", "is_transfer": false}}, {"type": "Feature", "geometry": {"type": "Point", "coordinates": [117.2166654, 31.8354049]}, "properties": {"name": "松荫桥", "line_name": "6", "is_transfer": false}}, {"type": "Feature", "geometry": {"type": "Point", "coordinates": [117.2407078, 31.8326597]}, "properties": {"name": "炮兵学院", "line_name": "6", "is_transfer": false}}, {"type": "Feature", "geometry": {"type": "Point", "coordinates": [117.252402, 31.8320021]}, "properties": {"name": "南七里", "line_name": "6", "is_transfer": false}}, {"type": "Feature", "geometry": {"type": "Point", "coordinates": [117.2798561, 31.8324552]}, "properties": {"name": "卫岗", "line_name": "6", "is_transfer": false}}, {"type": "Feature", "geometry": {"type": "Point", "coordinates": [117.3498647, 31.8376531]}, "properties": {"name": "市儿童医院", "line_name": "6", "is_transfer": false}}, {"type": "Feature", "geometry": {"type": "Point", "coordinates": [117.3615622, 31.831959]}, "properties": {"name": "市博物馆", "line_name": "6", "is_transfer": false}}, {"type": "Feature", "geometry": {"type": "Point", "coordinates": [117.3724111, 31.8298697]}, "properties": {"name": "钢红", "line_name": "6", "is_transfer": false}}, {"type": "Feature", "geometry": {"type": "Point", "coordinates": [117.3798832, 31.8376926]}, "properties": {"name": "大兴集", "line_name": "6", "is_transfer": false}}, {"type": "Feature", "geometry": {"type": "Point", "coordinates": [117.3928635, 31.839605]}, "properties": {"name": "伏龙", "line_name": "6", "is_transfer": false}}, {"type": "Feature", "geometry": {"type": "Point", "coordinates": [117.4114374, 31.8383683]}, "properties": {"name": "龙塘", "line_name": "6", "is_transfer": false}}, {"type": "Feature", "geometry": {"type": "Point", "coordinates": [117.278573, 31.9054277]}, "properties": {"name": "杏林", "line_name": "8", "is_transfer": false}}, {"type": "Feature", "geometry": {"type": "Point", "coordinates": [117.2746189, 31.9252092]}, "properties": {"name": "庐阳经开区", "line_name": "8", "is_transfer": false}}, {"type": "Feature", "geometry": {"type": "Point", "coordinates": [117.2543666, 31.9381077]}, "properties": {"name": "荷塘路", "line_name": "8", "is_transfer": false}}, {"type": "Feature", "geometry": {"type": "Point", "coordinates": [117.251566, 31.9585472]}, "properties": {"name": "双凤", "line_name": "8", "is_transfer": false}}, {"type": "Feature", "geometry": {"type": "Point", "coordinates": [117.2494365, 31.9778433]}, "properties": {"name": "金梅路", "line_name": "8", "is_transfer": false}}, {"type": "Feature", "geometry": {"type": "Point", "coordinates": [117.2485317, 31.9968033]}, "properties": {"name": "梅冲湖", "line_name": "8", "is_transfer": false}}, {"type": "Feature", "geometry": {"type": "Point", "coordinates": [117.2425355, 32.0130427]}, "properties": {"name": "北城世纪城", "line_name": "8", "is_transfer": false}}, {"type": "Feature", "geometry": {"type": "Point", "coordinates": [117.2431699, 32.0315526]}, "properties": {"name": "双墩", "line_name": "8", "is_transfer": false}}, {"type": "Feature", "geometry": {"type": "Point", "coordinates": [117.2406631, 32.0465667]}, "properties": {"name": "省立医院北区", "line_name": "8", "is_transfer": false}}, {"type": "Feature", "geometry": {"type": "Point", "coordinates": [117.2508886, 32.0647891]}, "properties": {"name": "北城高铁站", "line_name": "8", "is_transfer": false}}, {"type": "Feature", "geometry": {"type": "Point", "coordinates": [117.2845044, 31.8006489]}, "properties": {"name": "合肥南站", "line_name": "1|4|5", "is_transfer": true}}, {"type": "Feature", "geometry": {"type": "Point", "coordinates": [117.2951417, 31.8660544]}, "properties": {"name": "大东门", "line_name": "1|2", "is_transfer": true}}, {"type": "Feature", "geometry": {"type": "Point", "coordinates": [117.2962325, 31.8340831]}, "properties": {"name": "朱岗", "line_name": "1|6", "is_transfer": true}}, {"type": "Feature", "geometry": {"type": "Point", "coordinates": [117.2965818, 31.7151064]}, "properties": {"name": "云谷路", "line_name": "1|5", "is_transfer": true}}, {"type": "Feature", "geometry": {"type": "Point", "coordinates": [117.2252519, 31.8543048]}, "properties": {"name": "西七里塘", "line_name": "2|3", "is_transfer": true}}, {"type": "Feature", "geometry": {"type": "Point", "coordinates": [117.2698555, 31.8631416]}, "properties": {"name": "三孝口", "line_name": "2|5", "is_transfer": true}}, {"type": "Feature", "geometry": {"type": "Point", "coordinates": [117.3310602, 31.8697412]}, "properties": {"name": "东七里", "line_name": "2|4", "is_transfer": true}}, {"type": "Feature", "geometry": {"type": "Point", "coordinates": [117.2100916, 31.8110707]}, "properties": {"name": "图书馆", "line_name": "3|4", "is_transfer": true}}, {"type": "Feature", "geometry": {"type": "Point", "coordinates": [117.2260598, 31.8341981]}, "properties": {"name": "洪岗", "line_name": "3|6", "is_transfer": true}}, {"type": "Feature", "geometry": {"type": "Point", "coordinates": [117.2729017, 31.8889409]}, "properties": {"name": "海棠", "line_name": "3|5", "is_transfer": true}}, {"type": "Feature", "geometry": {"type": "Point", "coordinates": [117.2817276, 31.889027]}, "properties": {"name": "一里井", "line_name": "3|8", "is_transfer": true}}, {"type": "Feature", "geometry": {"type": "Point", "coordinates": [117.3365536, 31.8869499]}, "properties": {"name": "方庙", "line_name": "3|4", "is_transfer": true}}, {"type": "Feature", "geometry": {"type": "Point", "coordinates": [117.3185833, 31.8270138]}, "properties": {"name": "尧渡河路", "line_name": "4|6", "is_transfer": true}}, {"type": "Feature", "geometry": {"type": "Point", "coordinates": [117.152181, 31.8229536]}, "properties": {"name": "北雁湖", "line_name": "4|6", "is_transfer": true}}, {"type": "Feature", "geometry": {"type": "Point", "coordinates": [117.1286114, 31.8322001]}, "properties": {"name": "科大先研院", "line_name": "4|6", "is_transfer": true}}, {"type": "Feature", "geometry": {"type": "Point", "coordinates": [117.1097126, 31.8320382]}, "properties": {"name": "量子科学中心", "line_name": "4|6", "is_transfer": true}}, {"type": "Feature", "geometry": {"type": "Point", "coordinates": [117.0948263, 31.8314793]}, "properties": {"name": "合肥七中", "line_name": "4|6", "is_transfer": true}}, {"type": "Feature", "geometry": {"type": "Point", "coordinates": [117.2651871, 31.8305566]}, "properties": {"name": "市第三医院", "line_name": "5|6", "is_transfer": true}}, {"type": "Feature", "geometry": {"type": "Point", "coordinates": [117.3099158, 31.8854948]}, "properties": {"name": "合肥火车站", "line_name": "1|3", "is_transfer": true}}, {"type": "Feature", "geometry": {"type": "Point", "coordinates": [117.264601, 31.9319352]}, "properties": {"name": "六中菱湖校区", "line_name": "5|8", "is_transfer": true}}]}